#dP2023  1 28  0  0  0.00000000      96 __u+U ITR00 FIT  IAC
## 2246 518400.00000000   900.00000000 59972 0.0000000000000
+  119   C06C07C08C09C10C11C12C13C14C16C19C20C21C22C23C24C25
+        C26C27C28C29C30C32C33C34C35C36C37C38C39C40C41C42C43
+        C44C45C46E01E02E03E04E05E07E08E09E10E11E12E13E14E15
+        E18E19E21E24E25E26E27E30E31E33E34E36G01G02G03G04G05
+        G06G07G08G09G10G11G12G13G14G15G16G17G18G19G20G21G22
+        G23G24G25G26G27G29G30G31G32J02J03J04R01R02R03R04R05
+        R07R08R09R11R12R13R14R15R16R17R18R19R20R21R22R24R25
++         0  0  0  0  0  0  0  0  0  0  0  0  0  0  0  0  0
++         0  0  0  0  0  0  0  0  0  0  0  0  0  0  0  0  0
++         0  0  0  0  0  0  0  0  0  0  0  0  0  0  0  0  0
++         0  0  0  0  0  0  0  0  0  0  0  0  0  0  0  0  0
++         0  0  0  0  0  0  0  0  0  0  0  0  0  0  0  0  0
++         0  0  0  0  0  0  0  0  0  0  0  0  0  0  0  0  0
++         0  0  0  0  0  0  0  0  0  0  0  0  0  0  0  0  0
%c M  cc GPS ccc cccc cccc cccc cccc ccccc ccccc ccccc ccccc
%c cc cc ccc ccc cccc cccc cccc cccc ccccc ccccc ccccc ccccc
%f  0.0000000  0.000000000  0.00000000000  0.000000000000000
%f  0.0000000  0.000000000  0.00000000000  0.000000000000000
%i    0    0    0    0      0      0      0      0         0
%i    0    0    0    0      0      0      0      0         0
/* INFORMATION & ANALYSIS CENTER (IAC)      ULTRA-RAPID DATA
/* S/V CLOCKS ARE ALIGNED TO GNSS TIME                      
/* G:C1WC2W R:C1PC2P E:C1XC5X C:C2IC6I J:C1CC2S             
/* PCV:IGS20_2239 OL/AL:FES2004  NONE     YN ORB:CoN CLK:CoN
*  2023 01 28  8 45  0.00000000
PC06  -9166.745655  40371.300900  -7166.542980   -188.394782
PC07  -4533.693536  27765.410588  31471.380936    -48.212884
PC08 -18264.219414  26383.433964 -27440.581290    527.753214
PC09  -4453.985418  41596.188473   2065.369196    443.132063
PC10   2620.120796  29973.794689  29982.959711     23.302758
PC11  -5545.725647 -26524.310531   6702.939907   -152.785297
PC12   5769.996952 -25064.546165 -10779.546880    421.256412
PC13 -12574.185039  27276.093648 -29543.240386    194.094000
PC14 -13710.925565 -18522.304724  15720.378186    416.181862
PC16  -9417.885508  40053.557394  -8234.583319     72.283744
PC19  21493.892301  16080.804476  -7630.118133   -895.478994
PC20   5749.121823  18175.850397 -20373.864243    748.737836
PC21  14748.549738  -9395.269660  21768.987603   -913.882157
PC22  25597.269557   4666.231609  10117.764539   -662.511857
PC23 -23886.457020   4137.526983 -13835.938926   -873.496663
PC24   7567.423548 -20384.136818 -17495.982871   -483.763583
PC25 -12965.467887 -10516.102395 -22377.727901     62.667133
PC26  20827.238049 -18166.863470  -3737.964414    -70.633245
PC27 -10782.658639  19106.879940  17219.351968     88.244942
PC28 -15924.274898    331.903719  22920.520411     63.982637
PC29  12488.343881  20000.965931 -14923.633591     73.418377
PC30   1126.088508  27764.647877   2413.299417      1.259010
PC32 -14731.738024   9461.101091 -21711.836195   -637.467027
PC33 -21488.567179 -16015.123657   7763.992089   -876.974818
PC34  -1904.437543 -27828.782514  -1225.067267     93.507568
PC35  16081.973487    567.734860 -22804.014874    690.165866
PC36  12071.542404  11336.150262  22474.548972   -663.962528
PC37 -21992.815901  17038.342422   2374.246809   -835.380997
PC38 -24700.442153  27829.557865 -19913.762669     54.950994
PC39 -11795.051560  37113.097267 -15838.855235     -1.586695
PC40  -8155.920342  22143.609810  34947.177638    -13.645170
PC41 -25730.546061  -5051.764180  -9494.593964 999999.999999
PC42  -4315.982208 -17969.472272  20949.249398   -869.548540
PC43 -12151.857169 -20693.587625  14258.355633      4.323481
PC44  10290.105035 -19364.634203 -17288.655927    191.276507
PC45  23945.132735  -4517.222967  13567.735810    -53.173877
PC46  -5912.402114  19982.286846  18571.677281    -29.477055
PE01 -18220.757902  13789.197298  18818.054242   -598.838656
PE02  17807.082330 -13952.135183 -19085.299719     17.373039
PE03   6531.679685 -18478.607117  22176.439433   -644.345992
PE04   9643.227564  26452.510804  -9122.764094    -45.846661
PE05  19244.710752    560.245749  22483.580749   -100.879881
PE07 -20512.692389 -19065.778154  -9577.379724    -18.580719
PE08  -9648.503166 -26397.314142   9277.404720    -26.730800
PE09  20460.566474  19199.224718   9444.375504   -815.843740
PE10   5510.079901  19764.385080 -21335.555321   -508.274805
PE11  12855.587799  10060.782963 -24693.031727    649.470609
PE12  -1967.175411  25469.336835 -14932.029848   -400.809720
PE13 -12257.133580 -10941.090634  24632.074118    429.648791
PE14 -14380.217152   5980.379023  18626.202458    126.001130
PE15   2218.025784 -25607.205606  14700.245950    691.175223
PE18  21565.103904   -244.129233 -23482.680309   -457.468545
PE19  -8615.551005  16266.480605 -23174.122455  -3376.293905
PE21 -29070.543623   4120.688927   3794.365810   -508.839389
PE24  23613.623771   9314.533273  15182.342691  -1082.581669
PE25  29124.095692  -3918.612314  -3495.549887   -598.152507
PE26      0.000000      0.000000      0.000000 999999.999999
PE27 -24269.364342  -8713.509652 -14553.270560   -498.454108
PE30  -4393.174565 -16468.370833 -24216.804320  -1196.273506
PE31   5203.823092  16295.890333  24156.638576   -514.501824
PE33 -15294.526556  25041.109982   3862.780282   -453.278224
PE34  15163.189898 -25150.641878  -3682.883296    -27.130875
PE36  19389.463315  -9983.209281 -20010.384360     -3.912819
PG01 -14043.909437  22298.717812    552.810898    219.126196
PG02  10149.257158 -24617.379977   2345.037989   -624.573622
PG03 -13948.144203  12586.238107 -18851.319123   -368.959603
PG04  -4659.873629  18626.413551 -18298.655709    -39.612541
PG05  25054.468458  -5640.031191   6841.366516   -113.697961
PG06  11488.501968   9105.668012 -22073.153581    565.072998
PG07  -3450.558715  23197.013833  12407.593967    251.273354
PG08 -12989.673823   7879.646757  21729.253169   -105.736904
PG09   5582.213177  23795.679065 -10413.223250   -228.635507
PG10 -17439.710058 -11451.689561  16790.782486    -22.288062
PG11  18301.067845  -4060.619709 -18791.541374    -89.461708
PG12  16082.640158 -11267.932264 -18114.295085   -333.438507
PG13  15858.830354    639.622355  21151.828063    466.780618
PG14  14647.321955  13338.047875  17756.037824    -40.070098
PG15  12084.920899  -9901.920294  21025.835499      8.465549
PG16 -26415.909572    382.377699   4281.940425   -522.377321
PG17  12767.498254  23098.820479  -2029.498954    696.366179
PG18   1658.058112 -21931.496717  14790.275313   -117.072117
PG19  16674.760233  16538.738043 -12889.725019    270.050379
PG20  25979.798420   -518.410284  -4890.510218    454.275304
PG21 -16613.958447  17592.039905  10536.954302    153.707286
PG22 -17377.583528 -13543.470520 -14522.519498    415.245332
PG23  -5432.169583 -14588.428966  21540.360017      3.929701
PG24  14517.755876 -21238.427055   5290.939082    -49.318058
PG25      0.000000      0.000000      0.000000 999999.999999
PG26 -24767.176035  -5119.566657  -8767.525382    240.902303
PG27 -17686.450277  -4382.884666  19238.889065    116.154748
PG29  -1417.783048 -23232.719487 -12765.368842   -582.952907
PG30   6935.287314  16514.234628  19626.020563   -532.065128
PG31 -13542.505297  -7442.374420 -21776.160661   -207.608532
PG32 -15892.103078 -20839.675074  -4776.712744   -378.314646
PJ02 -31161.486583  23093.255368  21516.413369     -0.708089
PJ03 -28566.499192  27364.438389  19791.593266      0.016465
PJ04 -25677.152403  21602.843217 -20279.243792    120.801265
PR01  -5845.444927 -15406.218989  19471.010002     22.024682
PR02 -19087.252103 -16528.915117   3917.054193    -23.309655
PR03 -20599.872141  -7440.866778 -13081.182041     71.525089
PR04 -10508.611146   5304.350760 -22601.969541    173.730496
PR05   5132.632549  15298.773470 -19732.911203    106.850156
PR07  20296.433795   6782.238101  13881.330046     48.820940
PR08  10375.837082  -5647.341592  22662.226512    -69.220030
PR09  12135.939794   6122.043677  21612.389888    100.991858
PR11  21205.460829 -12859.545801  -5989.755887      1.923347
PR12   6322.314579 -13645.333941 -20579.016820     24.633376
PR13 -10328.432175  -7017.361379 -22265.040391    -31.402087
PR14 -22821.016796   4882.809536 -10277.709176     24.300804
PR15 -20775.308603  13002.376602   7084.993242     91.449270
PR16  -6601.797385  13662.258478  20497.482459     10.547961
PR17 -10665.900836    510.903879  23180.132269    599.752611
PR18  -9464.865596  17279.009715  16188.953697     63.992727
PR19  -4732.948027  24979.165345   2073.647045   -219.825426
PR20   4874.099007  18237.517567 -17117.029003    -86.681736
PR21  10721.520161  -2267.482891 -23027.065000   -368.893083
PR22  10158.549933 -17637.050894 -15357.023007     68.566343
PR24  -6076.003674 -17625.252330  17427.233786    142.726561
PR25  10921.731809    477.572299 -23037.407371     52.828752
EOF
